[{"OBJECT_NAME":"STARLINK-1828","OBJECT_ID":"2020-073BH","EPOCH":"2026-03-09T17:33:50.808384","MEAN_MOTION":15.53474496,"ECCENTRICITY":0.00015775,"INCLINATION":53.0554,"RA_OF_ASC_NODE":236.2202,"ARG_OF_PERICENTER":58.8994,"MEAN_ANOMALY":301.217,"EPHEMERIS_TYPE":0,"CLASSIFICATION_TYPE":"U","NORAD_CAT_ID":46725,"ELEMENT_SET_NO":999,"REV_AT_EPOCH":29721,"BSTAR":0.00076646935,"MEAN_MOTION_DOT":0.00049315,"MEAN_MOTION_DDOT":0},{"OBJECT_NAME":"GFO","OBJECT_ID":"1998-007A","EPOCH":"2026-03-09T11:35:22.629120","MEAN_MOTION":15.65801864,"ECCENTRICITY":0.00488061,"INCLINATION":108.0178,"RA_OF_ASC_NODE":266.8886,"ARG_OF_PERICENTER":194.2539,"MEAN_ANOMALY":165.7295,"EPHEMERIS_TYPE":0,"CLASSIFICATION_TYPE":"U","NORAD_CAT_ID":25157,"ELEMENT_SET_NO":999,"REV_AT_EPOCH":51081,"BSTAR":0.00066525992,"MEAN_MOTION_DOT":0.00072245,"MEAN_MOTION_DDOT":0}]
